BRAC ONNESHA            
1 42823U 98067MX  18101.13079554  .00027890  00000-0  28560-3 0  9994
2 42823  51.6376 341.6941 0004214 290.5820  69.4723 15.64755456 43347
NIGERIAEDUSAT-1         
1 42824U 98067MY  18101.08360188  .00027207  00000-0  28049-3 0  9999
2 42824  51.6383 342.1412 0004096 291.0418  69.0139 15.64599495 43337
CORVUS BC2              
1 42846U 17042X   18101.53440337  .00000311  00000-0  36146-4 0  9997
2 42846  97.6026   6.7946 0011079  62.7312 297.5034 14.91787184 40438
CORVUS BC1              
1 42847U 17042Y   18101.51648847  .00000091  00000-0  14289-4 0  9991
2 42847  97.6025   6.8168 0010732  62.5730 297.6580 14.91886298 40424
SILU-1 (SILKROAD 1)     
1 42903U 17021F   18101.18006022  .00022458  00000-0  19439-3 0  9999
2 42903  42.7794  13.2369 0010357 197.8773 282.3604 15.68639170 39390
MIRATA                  
1 43015U 17073C   18101.40641824  .00001312  00000-0  10832-3 0  9995
2 43015  97.7009  35.2539 0259906 128.7014 233.7754 14.77927667 21277
ASTERIA                 
1 43020U 98067NH  18101.26832798  .00020493  00000-0  27667-3 0  9994
2 43020  51.6421 350.1539 0001652 276.5156  83.5649 15.57748202 22057
DELLINGR (RBLE)         
1 43021U 98067NJ  18101.57669681  .00010649  00000-0  15338-3 0  9992
2 43021  51.6409 349.2050 0001521 270.2126  89.8691 15.56615012 22095
TECHEDSAT 6             
1 43026U 98067NK  18101.55045440  .00303598  00000-0  17101-2 0  9993
2 43026  51.6311 340.7191 0004946 221.6613 138.4011 15.77754816 22107
OSIRIS-3U               
1 43027U 98067NL  18101.06532514  .00033455  00000-0  39791-3 0  9995
2 43027  51.6397 349.5372 0002560 234.4040 125.6715 15.60810517 21927
AEROCUBE 7B             
1 43042U 17071F   18101.54738487  .00005785  00000-0  16039-3 0  9993
2 43042  51.6403   6.0687 0005643  31.0114 329.1202 15.38421279 19347
AEROCUBE 7C             
1 43043U 17071G   18101.54678047  .00005907  00000-0  16364-3 0  9996
2 43043  51.6405   6.0672 0005580  32.2787 327.8537 15.38405206 19318
CHEFSAT                 
1 43044U 17071H   18101.58819459  .00011263  00000-0  29675-3 0  9996
2 43044  51.6411   5.6018 0005669  30.3771 329.7540 15.38990785 19322
ASGARDIA 1              
1 43049U 17071N   18101.27368038  .00005881  00000-0  16223-3 0  9993
2 43049  51.6406   7.2473 0003211  53.1586 306.9692 15.38548443 19260
ISARA                   
1 43050U 17071P   18101.58511925  .00008321  00000-0  22249-3 0  9991
2 43050  51.6409   5.5826 0003189  51.7656 308.3615 15.38925871 19326
FAUNA                   
1 43052U 17071R   18101.52722069  .00005884  00000-0  16174-3 0  9991
2 43052  51.6409   5.9454 0003083  51.6344 308.4917 15.38658147 19308
CORVUS BC3              
1 43118U 18004H   18101.55047265  .00001186  00000-0  54860-4 0  9998
2 43118  97.5401 163.9880 0009859 336.4597  23.6186 15.22121447 13579
MICROMAS-2A             
1 43131U 18004W   18101.59758261  .00003114  00000-0  13727-3 0  9991
2 43131  97.5408 164.0843 0009030 340.4839  19.6050 15.22535076 13580
GOMX4-B                 
1 43196U 18015E   18101.54540125  .00000482  00000-0  23051-4 0  9994
2 43196  97.3358 231.9010 0021047  36.4427 323.8240 15.23456557 10383
GOMX4-A                 
1 43197U 18015F   18101.56976625  .00000454  00000-0  21837-4 0  9994
2 43197  97.3364 231.9214 0020755  36.5592  92.1165 15.23581517 10394
